[{"OBJECT_NAME":"STARLINK-35298","OBJECT_ID":"2025-221V","EPOCH":"2026-03-09T10:23:45.572640","MEAN_MOTION":15.30197295,"ECCENTRICITY":0.00014475,"INCLINATION":53.1601,"RA_OF_ASC_NODE":89.5677,"ARG_OF_PERICENTER":83.5651,"MEAN_ANOMALY":276.5515,"EPHEMERIS_TYPE":0,"CLASSIFICATION_TYPE":"U","NORAD_CAT_ID":65842,"ELEMENT_SET_NO":999,"REV_AT_EPOCH":2469,"BSTAR":0.00064421888,"MEAN_MOTION_DOT":0.00018767,"MEAN_MOTION_DDOT":0},{"OBJECT_NAME":"CZ-2D R\/B","OBJECT_ID":"2025-227B","EPOCH":"2026-03-09T22:11:26.043072","MEAN_MOTION":15.30393637,"ECCENTRICITY":0.00198129,"INCLINATION":80.1514,"RA_OF_ASC_NODE":267.3771,"ARG_OF_PERICENTER":270.3655,"MEAN_ANOMALY":89.5307,"EPHEMERIS_TYPE":0,"CLASSIFICATION_TYPE":"U","NORAD_CAT_ID":65946,"ELEMENT_SET_NO":999,"REV_AT_EPOCH":2254,"BSTAR":0.00032251975,"MEAN_MOTION_DOT":9.557e-5,"MEAN_MOTION_DDOT":0}]
